FENGYUN 1C DEB          
1 29804U 99025CW  17345.90487477 -.00000233  00000-0 -11524-3 0  9990
2 29804  99.0510   8.8050 0098882 172.0704 309.4365 14.03662232559004
